[{"OBJECT_NAME":"VSP RF C1","OBJECT_ID":"2024-043AQ","EPOCH":"2026-03-09T21:56:05.358624","MEAN_MOTION":15.29409663,"ECCENTRICITY":0.00093965,"INCLINATION":97.5441,"RA_OF_ASC_NODE":205.1792,"ARG_OF_PERICENTER":219.6172,"MEAN_ANOMALY":140.4382,"EPHEMERIS_TYPE":0,"CLASSIFICATION_TYPE":"U","NORAD_CAT_ID":59136,"ELEMENT_SET_NO":999,"REV_AT_EPOCH":11190,"BSTAR":0.00026222052,"MEAN_MOTION_DOT":7.409e-5,"MEAN_MOTION_DDOT":0},{"OBJECT_NAME":"STARLINK-35532","OBJECT_ID":"2025-236F","EPOCH":"2026-03-09T12:29:45.608064","MEAN_MOTION":15.30205397,"ECCENTRICITY":0.00011984,"INCLINATION":53.158,"RA_OF_ASC_NODE":104.3062,"ARG_OF_PERICENTER":93.3164,"MEAN_ANOMALY":266.7974,"EPHEMERIS_TYPE":0,"CLASSIFICATION_TYPE":"U","NORAD_CAT_ID":66091,"ELEMENT_SET_NO":999,"REV_AT_EPOCH":2292,"BSTAR":0.0008174376,"MEAN_MOTION_DOT":0.00023933,"MEAN_MOTION_DDOT":0}]
